SL-3 R/B                
1 19046U 88032B   17063.48456643  .00001193  00000-0  93940-4 0  9991
2 19046  97.5438 113.3492 0038272 324.4428  35.4248 15.02148732556926
SL-16 R/B               
1 19120U 88039B   17062.85782902 -.00000035  00000-0  62901-5 0  9990
2 19120  71.0152 187.4767 0022419 343.8191  16.2215 14.19167144491175
COSMOS 1953             
1 19210U 88050A   17063.19310571  .00000835  00000-0  56551-4 0  9990
2 19210  82.5178 135.1833 0011607 257.2392 102.7538 15.05155182562041
SL-8 R/B                
1 19257U 88053B   17063.11865550 -.00000034  00000-0 -24555-5 0  9991
2 19257  74.0483  49.6946 0021169 323.4036 106.0754 14.37344548503677
COSMOS 1975             
1 19573U 88093A   17063.49258947  .00000482  00000-0  32744-4 0  9996
2 19573  82.5179  86.7713 0012991 298.1445  61.8468 15.04061808544072
SL-14 R/B               
1 19574U 88093B   17062.62193135  .00000129  00000-0  12779-4 0  9992
2 19574  82.5294 243.7518 0023170 103.8200 300.3743 14.83205147533809
SL-16 R/B               
1 19650U 88102B   17062.87465996  .00000278  00000-0  16564-3 0  9992
2 19650  70.9974 236.5379 0014980 335.1420  24.8979 14.15752249460812
INTERCOSMOS 24          
1 20261U 89080A   17063.49518373  .00000258  00000-0  74849-4 0  9994
2 20261  82.5890  77.7886 1203808 338.2567  17.1257 12.55861241252821
SL-14 R/B               
1 20262U 89080C   17063.39624319  .00000090  00000-0  17983-4 0  9992
2 20262  82.5925 123.2184 1238083 135.4537 235.3103 12.48850099248646
DELTA 1 R/B             
1 20323U 89089B   17063.44444953  .00000111  00000-0  37906-4 0  9990
2 20323  97.0966  25.8951 0073118  50.7090 310.0561 14.48180172439569
DELTA 2 R/B(1)          
1 20453U 90008B   17062.62013822  .00001873  00000-0  11029-3 0  9996
2 20453  35.6252 130.3758 0290431  10.2533 350.3945 14.82887530432520
COSMOS 2058             
1 20465U 90010A   17063.17674841  .00000548  00000-0  44757-4 0  9990
2 20465  82.4927 348.8183 0014174 291.0348  68.9358 14.97443058469621
SL-14 R/B               
1 20466U 90010B   17062.72429250  .00000104  00000-0  10335-4 0  9996
2 20466  82.5021 111.2937 0019665 328.7350  31.2692 14.81267993461887
SL-14 R/B               
1 20511U 90018B   17063.52692689  .00000129  00000-0  13947-4 0  9991
2 20511  82.5215  51.5708 0019082  95.8589  43.5244 14.79927187456589
HST                     
1 20580U 90037B   17062.97174705  .00000873  00000-0  43136-4 0  9999
2 20580  28.4707 342.7255 0002938 120.9959 324.3761 15.08690275274293
SL-16 R/B               
1 20625U 90046B   17062.91817964 -.00000292  00000-0 -12709-3 0  9992
2 20625  71.0012  10.0746 0016880 267.7181  92.2009 14.14611983382699
COSMOS 2084             
1 20663U 90055A   17062.97025964  .00000318  00000-0  44261-4 0  9997
2 20663  62.7911 219.2827 0139490  79.6989 281.9797 14.91494074444110
SL-6 R/B(2)             
1 20666U 90055D   17063.19098740  .00000217  00000-0  35894-4 0  9997
2 20666  62.7838 137.6157 0135375  98.8016 262.8435 14.91847559445514
SL-8 R/B                
1 20775U 90078B   17063.23394912  .00003019  00000-0  15297-3 0  9995
2 20775  82.9303 134.1988 0589504 305.4921  49.2606 14.30128532333765
SL-8 R/B                
1 21088U 91006B   17063.21280037  .00000107  00000-0  92751-4 0  9991
2 21088  82.9396  98.2838 0021125 253.0216 174.6585 13.77040469311154
OKEAN-3                 
1 21397U 91039A   17063.06423891  .00000522  00000-0  48316-4 0  9999
2 21397  82.5196 238.2504 0016925 225.5865 134.3970 14.92422828394101
COSMOS 2151             
1 21422U 91042A   17063.29468597  .00000357  00000-0  32915-4 0  9993
2 21422  82.5035 346.2630 0012801 287.2565  72.7253 14.91783122392869
SL-14 R/B               
1 21423U 91042B   17062.56865667  .00000142  00000-0  15912-4 0  9992
2 21423  82.4917  60.1138 0016358 233.5499 126.4207 14.79680016386968
ERS-1                   
1 21574U 91050A   17062.88807356  .00000124  00000-0  55678-4 0  9997
2 21574  98.4486  11.7839 0031853 269.8083  89.9454 14.37564180342473
ARIANE 40 R/B           
1 21610U 91050F   17062.76967729  .00000017  00000-0  19402-4 0  9992
2 21610  98.6195 118.6105 0002134 248.5224 245.9718 14.40783598344656
INTERCOSMOS 25          
1 21819U 91086A   17062.62430342  .00000741  00000-0  14429-3 0  9990
2 21819  82.5476 126.5380 1525419 311.5770  36.3947 12.04406160 99577
SL-14 R/B               
1 21820U 91086B   17062.87700418  .00000367  00000-0  66319-4 0  9993
2 21820  82.5644 180.5875 1577493 134.9339 239.1162 11.93280096 94226
SL-8 R/B                
1 21876U 92008B   17062.88478008  .00000007  00000-0 -85461-5 0  9999
2 21876  82.9285 195.4624 0033993 329.8996 184.1804 13.75593224256677
SL-8 R/B                
1 21938U 92020B   17063.53006598 -.00000065  00000-0 -83743-4 0  9991
2 21938  82.9262  78.1663 0030376 122.6716  42.7563 13.75256404248906
SL-16 R/B               
1 22220U 92076B   17063.51980105 -.00000154  00000-0 -53602-4 0  9990
2 22220  70.9984 279.5700 0010707  69.2951 338.1732 14.16409639255950
SL-16 R/B               
1 22285U 92093B   17062.47969621  .00000094  00000-0  72973-4 0  9997
2 22285  71.0209  74.0278 0006531 282.0094  78.0296 14.15009908247583
COSMOS 2228             
1 22286U 92094A   17063.18702828  .00000340  00000-0  34515-4 0  9996
2 22286  82.5202 113.1053 0022186 109.0286 251.3337 14.87617808306889
SL-16 R/B               
1 22566U 93016B   17062.80027376  .00000287  00000-0  17269-3 0  9994
2 22566  71.0066 288.1401 0012262 289.3523  70.6274 14.14944114236361
COSMOS 2242             
1 22626U 93024A   17062.80234053  .00000360  00000-0  36680-4 0  9993
2 22626  82.5235 141.1744 0020670 109.5830 250.7621 14.87616599290480
SL-16 R/B               
1 22803U 93059B   17062.60176736  .00000202  00000-0  12495-3 0  9991
2 22803  70.9894 111.9305 0017736 193.9616 166.1020 14.16764260213079
ARIANE 40 R/B           
1 22830U 93061H   17063.22153822 -.00000045  00000-0  54914-6 0  9995
2 22830  98.8887  76.2013 0010080 230.9092 186.8942 14.31410782223239
COSMOS 2278             
1 23087U 94023A   17063.48492584 -.00000248  00000-0 -10628-3 0  9995
2 23087  71.0511 217.8079 0008419 359.2470   0.8638 14.13733115179699
SL-16 R/B               
1 23088U 94023B   17063.19848763 -.00000091  00000-0 -22636-4 0  9997
2 23088  70.9996 142.4136 0005613 262.4518  97.5967 14.14648018180691
SL-16 R/B               
1 23343U 94074B   17063.17533027  .00000011  00000-0  91631-5 0  9991
2 23343  98.1667  99.1404 0007968  56.5346 347.5703 14.76689974201339
SL-16 R/B               
1 23405U 94077B   17062.67755752 -.00000300  00000-0 -12968-3 0  9995
2 23405  70.9820  77.2309 0001440 193.8172 166.2912 14.15193460150333
ERS-2                   
1 23560U 95021A   17063.52948222  .00002813  00000-0  13350-3 0  9993
2 23560  98.5477  41.8792 0002668 317.9625  42.1402 15.20296318159481
ARIANE 40+ R/B          
1 23561U 95021B   17062.64573889  .00000067  00000-0  37606-4 0  9999
2 23561  98.7906  61.4158 0006450 203.1010 290.6486 14.37798222145869
SL-16 R/B               
1 23705U 95058B   17063.05568084  .00000269  00000-0  16318-3 0  9996
2 23705  71.0195 249.6053 0010518 100.8139 259.4168 14.15095775102314
SL-16 R/B               
1 24298U 96051B   17063.55435983  .00000080  00000-0  69544-4 0  9995
2 24298  70.8476 282.5980 0016060 325.8180  34.1905 14.12483415 57044
ORBVIEW 2 (SEASTAR)     
1 24883U 97037A   17062.85167909  .00000092  00000-0  49246-4 0  9992
2 24883  98.5321 172.9613 0003335  71.9029 288.2519 14.33373833 36569
SL-16 R/B               
1 25400U 98043G   17062.92138446  .00000014  00000-0  23705-4 0  9994
2 25400  98.4764  14.5734 0008810 240.7214 119.3086 14.25404612969856
SL-16 R/B               
1 25407U 98045B   17062.73438328  .00000130  00000-0  90646-4 0  9991
2 25407  71.0083 263.0379 0007659 351.3312   8.7678 14.15758082960983
ISS (ZARYA)             
1 25544U 98067A   17063.63886574  .00003324  00000-0  57458-4 0  9999
2 25544  51.6437 199.4591 0006946 250.9439 296.1857 15.54125064 45496
SL-8 R/B                
1 25723U 99022C   17063.32486325  .00010826  00000-0  17901-3 0  9999
2 25723  48.4177   5.9326 0010842 250.4426 109.5348 15.52603240990191
CZ-4B R/B               
1 25732U 99025C   17063.51977699 -.00000025  00000-0  10311-4 0  9992
2 25732  98.9900  64.0046 0037912  30.6258  78.1596 14.17626377921802
OKEAN-O                 
1 25860U 99039A   17063.50490731  .00000129  00000-0  26083-4 0  9992
2 25860  98.1771  47.0032 0001851  96.0675 264.0745 14.76452355948382
SL-16 R/B               
1 25861U 99039B   17062.85355233  .00000102  00000-0  21348-4 0  9997
2 25861  98.0924  33.5329 0016926  63.0571 329.0476 14.78389587950103
TERRA                   
1 25994U 99068A   17063.41509095  .00000238  00000-0  62916-4 0  9992
2 25994  98.2172 139.9126 0001178  90.5303 269.6028 14.57107934915412
SL-14 R/B               
1 26874U 01032B   17063.36831572  .00128056  57118-5  19924-3 0  9992
2 26874  82.4533 353.0198 0000673 167.7117 192.4180 16.04045470876983
ENVISAT                 
1 27386U 02009A   17063.51932605  .00000017  00000-0  19508-4 0  9990
2 27386  98.2457 113.0914 0001232  87.9847 272.1484 14.37889771786030
IDEFIX & ARIANE 42P R/B 
1 27422U 02021B   17063.49909271 -.00000023  00000-0  69290-5 0  9997
2 27422  98.2293  69.5671 0012244 181.3533 178.7619 14.29251691771726
AQUA                    
1 27424U 02022A   17063.22804806  .00000053  00000-0  21793-4 0  9996
2 27424  98.2198   6.0963 0002107  78.6183 278.4718 14.57101197788988
CZ-4B R/B               
1 27432U 02024C   17062.87552292  .00000004  00000-0  25814-4 0  9990
2 27432  98.9754  35.9082 0050055 331.4648  57.7049 14.14037099763830
MIDORI II (ADEOS-II)    
1 27597U 02056A   17062.96681199  .00000087  00000-0  52622-4 0  9994
2 27597  98.3571  37.0679 0000355  41.7172 318.4037 14.27270562740410
